OBJECT_NAME,OBJECT_ID,EPOCH,MEAN_MOTION,ECCENTRICITY,INCLINATION,RA_OF_ASC_NODE,ARG_OF_PERICENTER,MEAN_ANOMALY,EPHEMERIS_TYPE,CLASSIFICATION_TYPE,NORAD_CAT_ID,ELEMENT_SET_NO,REV_AT_EPOCH,BSTAR,MEAN_MOTION_DOT,MEAN_MOTION_DDOT
BLUEWALKER-3,2022-111AL,2026-07-17T03:04:22.440000,15.38622140,.00045719,53.2277,253.3696,275.2529,84.7955,0,U,53807,999,21481,.74459542E-4,.2487E-4,0
